{"fetched_at":"2026-07-13T18:16:36.647Z","source":"https://celestrak.org/NORAD/elements/gp.php?GROUP=spire&FORMAT=JSON","constellation":"spire","records":[{"OBJECT_NAME":"LEMUR-2-MYRA","OBJECT_ID":"2025-276EC","EPOCH":"2026-07-12T17:39:39.104064","CLASSIFICATION_TYPE":"U","MEAN_MOTION":15.0057208,"ECCENTRICITY":0.00186053,"INCLINATION":97.5226,"RA_OF_ASC_NODE":263.7829,"ARG_OF_PERICENTER":61.6382,"MEAN_ANOMALY":298.6715,"EPHEMERIS_TYPE":0,"NORAD_CAT_ID":66787,"ELEMENT_SET_NO":999,"REV_AT_EPOCH":3404,"BSTAR":0.00029064221,"MEAN_MOTION_DOT":0.00003624,"MEAN_MOTION_DDOT":0},{"OBJECT_NAME":"LEMUR-2 FIKRETDENGIZ","OBJECT_ID":"2026-004A","EPOCH":"2026-07-12T22:47:09.379968","CLASSIFICATION_TYPE":"U","MEAN_MOTION":14.88507915,"ECCENTRICITY":0.00103065,"INCLINATION":97.8023,"RA_OF_ASC_NODE":192.1152,"ARG_OF_PERICENTER":62.1023,"MEAN_ANOMALY":298.1237,"EPHEMERIS_TYPE":0,"NORAD_CAT_ID":67363,"ELEMENT_SET_NO":999,"REV_AT_EPOCH":2711,"BSTAR":0.00027683743,"MEAN_MOTION_DOT":0.0000252,"MEAN_MOTION_DDOT":0},{"OBJECT_NAME":"TWILIGHT-1 OBJECT B","OBJECT_ID":"2026-004B","EPOCH":"2026-07-12T12:21:08.778816","CLASSIFICATION_TYPE":"U","MEAN_MOTION":14.87787971,"ECCENTRICITY":0.00099096,"INCLINATION":97.8073,"RA_OF_ASC_NODE":191.6894,"ARG_OF_PERICENTER":53.6882,"MEAN_ANOMALY":306.5248,"EPHEMERIS_TYPE":0,"NORAD_CAT_ID":67364,"ELEMENT_SET_NO":999,"REV_AT_EPOCH":2705,"BSTAR":0.00011075664,"MEAN_MOTION_DOT":0.00000957,"MEAN_MOTION_DDOT":0},{"OBJECT_NAME":"LEMUR-2-MARIO-SOUSA","OBJECT_ID":"2026-004C","EPOCH":"2026-07-12T23:55:23.936448","CLASSIFICATION_TYPE":"U","MEAN_MOTION":14.88716641,"ECCENTRICITY":0.00099404,"INCLINATION":97.7995,"RA_OF_ASC_NODE":192.1569,"ARG_OF_PERICENTER":63.2656,"MEAN_ANOMALY":296.9577,"EPHEMERIS_TYPE":0,"NORAD_CAT_ID":67365,"ELEMENT_SET_NO":999,"REV_AT_EPOCH":2713,"BSTAR":0.00029238783,"MEAN_MOTION_DOT":0.00002679,"MEAN_MOTION_DDOT":0},{"OBJECT_NAME":"LEMUR-2-SONNENBLUME","OBJECT_ID":"2026-004E","EPOCH":"2026-07-12T22:22:07.454208","CLASSIFICATION_TYPE":"U","MEAN_MOTION":14.88446772,"ECCENTRICITY":0.00095125,"INCLINATION":97.7999,"RA_OF_ASC_NODE":192.0669,"ARG_OF_PERICENTER":64.4716,"MEAN_ANOMALY":295.7483,"EPHEMERIS_TYPE":0,"NORAD_CAT_ID":67367,"ELEMENT_SET_NO":999,"REV_AT_EPOCH":2712,"BSTAR":0.00017220435,"MEAN_MOTION_DOT":0.00001544,"MEAN_MOTION_DDOT":0},{"OBJECT_NAME":"LEMUR-2-WOBLER","OBJECT_ID":"2026-004F","EPOCH":"2026-07-12T22:07:13.872576","CLASSIFICATION_TYPE":"U","MEAN_MOTION":14.88688331,"ECCENTRICITY":0.00096149,"INCLINATION":97.8046,"RA_OF_ASC_NODE":192.2054,"ARG_OF_PERICENTER":56.361,"MEAN_ANOMALY":303.8523,"EPHEMERIS_TYPE":0,"NORAD_CAT_ID":67368,"ELEMENT_SET_NO":999,"REV_AT_EPOCH":2712,"BSTAR":0.00022348539,"MEAN_MOTION_DOT":0.00002033,"MEAN_MOTION_DDOT":0},{"OBJECT_NAME":"LEMUR-2-GRAM-E-SUE","OBJECT_ID":"2026-004H","EPOCH":"2026-07-13T05:59:38.712768","CLASSIFICATION_TYPE":"U","MEAN_MOTION":14.88584233,"ECCENTRICITY":0.00087038,"INCLINATION":97.7986,"RA_OF_ASC_NODE":192.3963,"ARG_OF_PERICENTER":66.1121,"MEAN_ANOMALY":294.1007,"EPHEMERIS_TYPE":0,"NORAD_CAT_ID":67370,"ELEMENT_SET_NO":999,"REV_AT_EPOCH":2717,"BSTAR":0.00014636302,"MEAN_MOTION_DOT":0.00001309,"MEAN_MOTION_DDOT":0},{"OBJECT_NAME":"LEMUR-2-KATIE","OBJECT_ID":"2026-004AA","EPOCH":"2026-07-12T22:34:02.206848","CLASSIFICATION_TYPE":"U","MEAN_MOTION":14.90239334,"ECCENTRICITY":0.00036713,"INCLINATION":97.8041,"RA_OF_ASC_NODE":192.6354,"ARG_OF_PERICENTER":39.328,"MEAN_ANOMALY":320.8204,"EPHEMERIS_TYPE":0,"NORAD_CAT_ID":67387,"ELEMENT_SET_NO":999,"REV_AT_EPOCH":2714,"BSTAR":0.00033168129,"MEAN_MOTION_DOT":0.00003162,"MEAN_MOTION_DDOT":0}]}
